[{"OBJECT_NAME":"BANDWAGON-2 OBJECT U","OBJECT_ID":"2024-247U","EPOCH":"2026-03-09T09:14:20.461056","MEAN_MOTION":15.41688262,"ECCENTRICITY":0.00082301,"INCLINATION":44.9964,"RA_OF_ASC_NODE":95.6179,"ARG_OF_PERICENTER":3.4918,"MEAN_ANOMALY":356.6027,"EPHEMERIS_TYPE":0,"CLASSIFICATION_TYPE":"U","NORAD_CAT_ID":62395,"ELEMENT_SET_NO":999,"REV_AT_EPOCH":6796,"BSTAR":0.00074956837,"MEAN_MOTION_DOT":0.00032131,"MEAN_MOTION_DDOT":0},{"OBJECT_NAME":"STARLINK-36369","OBJECT_ID":"2026-026C","EPOCH":"2026-03-09T22:00:01.999584","MEAN_MOTION":15.48557021,"ECCENTRICITY":0.00018859,"INCLINATION":97.2847,"RA_OF_ASC_NODE":123.4317,"ARG_OF_PERICENTER":70.9847,"MEAN_ANOMALY":342.6499,"EPHEMERIS_TYPE":0,"CLASSIFICATION_TYPE":"U","NORAD_CAT_ID":67723,"ELEMENT_SET_NO":999,"REV_AT_EPOCH":535,"BSTAR":-0.041406424,"MEAN_MOTION_DOT":-0.01972119,"MEAN_MOTION_DDOT":0}]
